     2.11           N: GPS NAV DATA                         RINEX VERSION / TYPE
teqc  2019Feb25                         20221121 12:23:27UTCPGM / RUN BY / DATE
OSX ker:10.11.6|Core i5|gcc 4.3 -m64|OSX ker:10.10+|=+      COMMENT
    6.5193D-09  2.2352D-08 -5.9605D-08 -1.1921D-07          ION ALPHA
    8.6016D+04  9.8304D+04 -6.5536D+04 -5.2429D+05          ION BETA
    3.725290298462D-09 6.217248937901D-15    61440     1533 DELTA-UTC: A0,A1,T,W
                                                            END OF HEADER
24 09  5 22  0  0  0.0 1.907069236040D-04 2.955857780762D-12 0.000000000000D+00
    1.010000000000D+02 9.456250000000D+01 4.139815297067D-09 2.298126719025D+00
    4.973262548447D-06 6.704089231789D-03 1.224130392075D-05 5.153688365936D+03
    4.320000000000D+05-6.332993507385D-08-2.217587104204D-01 4.097819328308D-08
    9.511105628526D-01 1.375312500000D+02-6.491827625764D-01-7.728179052535D-09
   -1.682212928064D-10 1.000000000000D+00 1.532000000000D+03 0.000000000000D+00
    2.000000000000D+00 0.000000000000D+00-1.396983861923D-09 1.010000000000D+02
    4.248180000000D+05 4.000000000000D+00
25 09  5 22  0  0  0.0 4.242225550115D-04 1.921307557495D-11 0.000000000000D+00
    4.900000000000D+01-6.093750000000D+01 4.104813839116D-09 2.792192051287D+00
   -3.201887011528D-06 1.142241456546D-02 1.202337443829D-05 5.153656503677D+03
    4.320000000000D+05 1.955777406693D-07 2.775357926718D+00 6.705522537231D-08
    9.698599002721D-01 1.489687500000D+02-1.206689706853D+00-7.579958592844D-09
    2.200091642648D-10 1.000000000000D+00 1.532000000000D+03 0.000000000000D+00
    2.800000000000D+00 0.000000000000D+00-7.450580596924D-09 4.900000000000D+01
    4.260660000000D+05 4.000000000000D+00
 6 09  5 22  0  0  0.0 1.319982111454D-04 1.489297574153D-11 0.000000000000D+00
    1.220000000000D+02-3.878125000000D+01 5.395581890500D-09 2.175897059349D+00
   -1.996755599976D-06 5.984412273392D-03 6.683170795441D-06 5.153701366425D+03
    4.320000000000D+05 5.029141902924D-08-1.365453818895D+00-5.215406417847D-08
    9.333430863088D-01 2.283125000000D+02-1.368270154173D+00-8.392135280405D-09
   -6.728851712254D-10 1.000000000000D+00 1.532000000000D+03 0.000000000000D+00
    2.000000000000D+00 0.000000000000D+00-4.656612873077D-09 1.220000000000D+02
    4.273560000000D+05 4.000000000000D+00
21 09  5 22  0  0  0.0 1.270323991776D-05-2.046363078989D-12 0.000000000000D+00
    6.700000000000D+01 8.478125000000D+01 4.557689846076D-09-2.622803367957D+00
    4.181638360024D-06 1.526037091389D-02 1.192837953568D-05 5.153624088287D+03
    4.320000000000D+05-1.117587089539D-08-2.537738869982D-01-1.955777406693D-07
    9.344576675012D-01 1.346562500000D+02-2.604588953847D+00-7.844612473883D-09
   -1.178620522847D-11 1.000000000000D+00 1.532000000000D+03 0.000000000000D+00
    2.000000000000D+00 0.000000000000D+00-1.210719347000D-08 6.700000000000D+01
    4.275060000000D+05 4.000000000000D+00
23 09  5 22  0  0  0.0 3.900839947164D-04 1.136868377216D-13 0.000000000000D+00
    6.600000000000D+01-1.016875000000D+02 4.466614623856D-09-7.738740086730D-02
   -5.295500159264D-06 6.087552639656D-03 4.906207323074D-06 5.153608488083D+03
    4.320000000000D+05 3.911554813385D-08 1.827838966727D+00-1.117587089539D-08
    9.701735952587D-01 2.867500000000D+02 2.883576843979D+00-8.287845222020D-09
   -1.514348792991D-10 1.000000000000D+00 1.532000000000D+03 0.000000000000D+00
    2.000000000000D+00 0.000000000000D+00-2.002343535423D-08 6.600000000000D+01
    4.248180000000D+05 4.000000000000D+00
10 09  5 22  0  0  0.0-1.636380329728D-05-5.684341886081D-13 0.000000000000D+00
    6.300000000000D+01 8.262500000000D+01 4.718767984199D-09 9.790623250071D-01
    4.317611455917D-06 8.589421864599D-03 2.371147274971D-06 5.153604778290D+03
    4.320000000000D+05-1.601874828339D-07 7.986671844026D-01 2.793967723846D-08
    9.585338348960D-01 3.326875000000D+02 6.268231715525D-01-8.562856677351D-09
    2.153661137202D-10 1.000000000000D+00 1.532000000000D+03 0.000000000000D+00
    2.800000000000D+00 0.000000000000D+00-2.793967723846D-09 6.300000000000D+01
    4.281960000000D+05 4.000000000000D+00
 7 09  5 22  0  0  0.0 1.846021041274D-05-6.821210263297D-13 0.000000000000D+00
    7.600000000000D+01-4.412500000000D+01 4.228033257413D-09-1.648344094205D+00
   -2.451241016388D-06 2.562223467976D-03 1.236982643604D-05 5.153674448013D+03
    4.320000000000D+05-2.235174179077D-08 2.869816393681D+00-3.352761268616D-08
    9.676376955255D-01 1.465625000000D+02 2.874495541546D+00-7.782824185867D-09
    3.853731951976D-10 1.000000000000D+00 1.532000000000D+03 0.000000000000D+00
    2.000000000000D+00 0.000000000000D+00-1.071020960808D-08 7.600000000000D+01
    4.289760000000D+05 4.000000000000D+00
16 09  5 22  2  0  0.0 4.895869642496D-05-3.296918293927D-12 0.000000000000D+00
    3.000000000000D+01 2.556250000000D+01 4.833058459141D-09-3.040454280313D+00
    1.396983861923D-06 5.357564659789D-03 6.470829248428D-06 5.153541921616D+03
    4.392000000000D+05-1.303851604462D-07-2.344978430404D+00 2.607703208923D-08
    9.682980977081D-01 2.599687500000D+02-3.618401926450D-01-7.993904406777D-09
    4.532331646948D-10 1.000000000000D+00 1.532000000000D+03 0.000000000000D+00
    2.000000000000D+00 0.000000000000D+00-9.778887033463D-09 3.000000000000D+01
    4.320180000000D+05 4.000000000000D+00
25 09  5 22  2  0  0.0 4.243613220751D-04 1.921307557495D-11 0.000000000000D+00
    5.000000000000D+01-6.309375000000D+01 4.035882396416D-09-2.440777271188D+00
   -3.146007657051D-06 1.142249023542D-02 1.173093914986D-05 5.153656467438D+03
    4.392000000000D+05 5.401670932770D-08 2.775303026328D+00 1.620501279831D-07
    9.698621048896D-01 1.533125000000D+02-1.206716801558D+00-7.537456822474D-09
    3.235849071817D-10 1.000000000000D+00 1.532000000000D+03 0.000000000000D+00
    2.800000000000D+00 0.000000000000D+00-7.450580596924D-09 5.000000000000D+01
    4.320180000000D+05 4.000000000000D+00
13 09  5 22  1 59 44.0 2.976637333632D-04 9.094947017729D-13 0.000000000000D+00
    1.800000000000D+01-1.083750000000D+02 3.696939706664D-09 1.736842240851D+00
   -5.630776286125D-06 4.121993435547D-03 5.051493644714D-06 5.153709672928D+03
    4.391840000000D+05 2.048909664154D-08 1.879694228055D+00-6.891787052155D-08
    9.946786668276D-01 3.000000000000D+02 1.567303832244D+00-7.848898366693D-09
   -1.607209803882D-10 1.000000000000D+00 1.532000000000D+03 0.000000000000D+00
    2.000000000000D+00 0.000000000000D+00-1.117587089539D-08 1.800000000000D+01
    4.320180000000D+05 4.000000000000D+00
21 09  5 22  2  0  0.0 1.268833875656D-05-2.046363078989D-12 0.000000000000D+00
    6.800000000000D+01 9.162500000000D+01 4.616620872219D-09-1.572670782748D+00
    4.505738615990D-06 1.526055147406D-02 1.150555908680D-05 5.153621969223D+03
    4.392000000000D+05 1.378357410431D-07-2.538301040141D-01-2.961605787277D-07
    9.344574612298D-01 1.429062500000D+02-2.604510035269D+00-7.888185717455D-09
   -8.857511808063D-11 1.000000000000D+00 1.532000000000D+03 0.000000000000D+00
    2.000000000000D+00 0.000000000000D+00-1.210719347000D-08 6.800000000000D+01
    4.320180000000D+05 4.000000000000D+00
24 09  5 22  2  0  0.0 1.907283440232D-04 2.955857780762D-12 0.000000000000D+00
    1.020000000000D+02 1.085937500000D+02 4.305893643468D-09-2.934830927900D+00
    5.401670932770D-06 6.705921143293D-03 1.222640275955D-05 5.153684923172D+03
    4.392000000000D+05 4.470348358154D-08-2.218140760180D-01 6.891787052155D-08
    9.511088351464D-01 1.394375000000D+02-6.492401484639D-01-7.796039022032D-09
   -2.475103097979D-10 1.000000000000D+00 1.532000000000D+03 0.000000000000D+00
    2.000000000000D+00 0.000000000000D+00-1.396983861923D-09 1.020000000000D+02
    4.320180000000D+05 4.000000000000D+00
23 09  5 22  2  0  0.0 3.900844603777D-04 1.136868377216D-13 0.000000000000D+00
    6.800000000000D+01-9.634375000000D+01 4.288392914492D-09 9.726520930124D-01
   -5.042180418968D-06 6.090178503655D-03 4.090368747711D-06 5.153613889694D+03
    4.392000000000D+05 9.126961231232D-08 1.827779737563D+00 7.636845111847D-08
    9.701728228380D-01 3.062500000000D+02 2.883755128342D+00-8.197841473003D-09
   -1.767930784271D-10 1.000000000000D+00 1.532000000000D+03 0.000000000000D+00
    2.000000000000D+00 0.000000000000D+00-2.002343535423D-08 6.800000000000D+01
    4.320180000000D+05 4.000000000000D+00
 6 09  5 22  2  0  0.0 1.321053132415D-04 1.489297574153D-11 0.000000000000D+00
    1.270000000000D+02-4.137500000000D+01 5.518086993330D-09-3.057061441920D+00
   -1.931563019753D-06 5.985098774545D-03 6.727874279022D-06 5.153699939728D+03
    4.392000000000D+05 1.043081283569D-07-1.365514870855D+00 6.705522537231D-08
    9.333384985977D-01 2.331562500000D+02-1.368325398348D+00-8.412493271255D-09
   -5.707380592453D-10 1.000000000000D+00 1.532000000000D+03 0.000000000000D+00
    2.000000000000D+00 0.000000000000D+00-4.656612873077D-09 1.270000000000D+02
    4.320180000000D+05 4.000000000000D+00
 3 09  5 22  1 59 44.0 3.961930051446D-04 5.115907697473D-12 0.000000000000D+00
    2.300000000000D+01-3.665625000000D+01 5.846314951056D-09 7.594506867866D-01
   -1.573935151100D-06 1.183485006914D-02 6.416812539101D-06 5.153624433517D+03
    4.391840000000D+05-1.173466444016D-07-1.433091717794D+00 8.195638656616D-08
    9.258388066397D-01 2.389375000000D+02 9.004175489765D-01-8.830367820264D-09
   -6.496699185027D-10 1.000000000000D+00 1.532000000000D+03 0.000000000000D+00
    2.000000000000D+00 0.000000000000D+00-4.190951585770D-09 2.300000000000D+01
    4.320180000000D+05 4.000000000000D+00
